[{"OBJECT_NAME":"ION SCV-004","OBJECT_ID":"2022-002K","EPOCH":"2026-03-09T16:32:03.244416","MEAN_MOTION":15.29369331,"ECCENTRICITY":0.00072157,"INCLINATION":97.2961,"RA_OF_ASC_NODE":128.2294,"ARG_OF_PERICENTER":1.6783,"MEAN_ANOMALY":358.448,"EPHEMERIS_TYPE":0,"CLASSIFICATION_TYPE":"U","NORAD_CAT_ID":50993,"ELEMENT_SET_NO":999,"REV_AT_EPOCH":23008,"BSTAR":0.00023198467,"MEAN_MOTION_DOT":6.538e-5,"MEAN_MOTION_DDOT":0},{"OBJECT_NAME":"STARLINK-35581","OBJECT_ID":"2025-262Z","EPOCH":"2026-03-09T23:15:01.747008","MEAN_MOTION":15.27558466,"ECCENTRICITY":0.00056762,"INCLINATION":42.9998,"RA_OF_ASC_NODE":294.1941,"ARG_OF_PERICENTER":234.896,"MEAN_ANOMALY":125.136,"EPHEMERIS_TYPE":0,"CLASSIFICATION_TYPE":"U","NORAD_CAT_ID":66479,"ELEMENT_SET_NO":999,"REV_AT_EPOCH":1895,"BSTAR":0.0011772313,"MEAN_MOTION_DOT":0.00032265,"MEAN_MOTION_DDOT":0}]
